CALSPHERE 1             
1 00900U 64063C   22330.07167844  .00000558  00000+0  58412-3 0  9995
2 00900  90.1840  43.9235 0025508 252.5947 179.0215 13.73981446892856
CALSPHERE 2             
1 00902U 64063E   22330.22352024  .00000080  00000+0  10633-3 0  9993
2 00902  90.1990  47.1202 0019628  43.1643  15.2971 13.52728319681094
LCS 1                   
1 01361U 65034C   22329.78434117  .00000009  00000+0  90360-4 0  9992
2 01361  32.1462  22.2381 0011440  89.4342 270.7467  9.89301954 81201
TEMPSAT 1               
1 01512U 65065E   22330.49301194  .00000054  00000+0  91199-4 0  9993
2 01512  89.9251 217.3854 0068431 296.3371 242.4434 13.33462340786966
CALSPHERE 4A            
1 01520U 65065H   22329.84191903  .00000077  00000+0  13121-3 0  9997
2 01520  89.9800 129.9852 0069587 167.2496 291.0720 13.35917808789202
OPS 5712 (P/L 160)      
1 02826U 67053A   22330.53949482  .00002501  00000+0  64107-3 0  9991
2 02826  69.9282 268.6195 0002718 174.1135 186.0032 14.51445203876744
OPS 5712 (P/L 153)      
1 02874U 67053H   22329.66550861  .00000023  00000+0  55081-4 0  9994
2 02874  69.9752  19.8328 0004332  77.4363 282.7226 13.96429622825338
SURCAL 150B             
1 02909U 67053J   22329.83926356  .00004016  00000+0  75340-3 0  9993
2 02909  69.9472 251.6602 0003832 222.2802 137.8044 14.65458703887244
RIGIDSPHERE 2 (LCS 4)   
1 05398U 71067E   22329.84655384  .00000454  00000+0  15198-3 0  9996
2 05398  87.6207 338.4853 0061845 211.1538 148.5988 14.34403197687398
COSMOS 2493 (SKRL-756 1)
1 39490U 13078A   22330.46973336  .00001516  00000+0  15480-3 0  9998
2 39490  82.4186  78.8698 0015629 279.7515  80.1938 14.89912191484146
COSMOS 2494 (SKRL-756 2)
1 39491U 13078B   22330.55414092  .00001680  00000+0  16522-3 0  9998
2 39491  82.4190  72.2111 0020161 252.4471 107.4546 14.91401288484495
